0 IRIDIUM 171
1 43929U 19002H   24006.47314091  .00000332  00000-0  11153-3 0  9992
2 43929  86.3979   6.8642 0002078  89.7436 270.3998 14.34218885261002
0 IRIDIUM 170
1 43930U 19002J   24006.47730330  .00000765  00000-0  11747-3 0  9991
2 43930  86.6098   6.7074 0002376  87.0864 273.0625 14.72237725267913
0 IRIDIUM 167
1 43931U 19002K   24006.46680551  .00000329  00000-0  11045-3 0  9997
2 43931  86.3970   6.6741 0002065  90.3045 269.8387 14.34217589261009
0 IRIDIUM 181
1 56726U 23068S   24006.49043487  .00000368  00000-0  10302-3 0  9992
2 56726  86.8614  52.4949 0001626  81.1044 279.0341 14.43573375 33663
0 IRIDIUM 177
1 56727U 23068T   24006.50813299  .00001421  00000-0  18357-3 0  9990
2 56727  86.1965  32.5829 0002254  95.6133 264.5345 14.80213627 34317
0 IRIDIUM 174
1 56728U 23068U   24006.50268645  .00001416  00000-0  18296-3 0  9996
2 56728  86.1971  32.6760 0002458  96.7265 263.4236 14.80220418 34317
0 IRIDIUM 178
1 56729U 23068V   24006.49728451  .00001340  00000-0  17299-3 0  9999
2 56729  86.5767  42.4295 0002217  94.1087 266.0388 14.80216723 34315
0 IRIDIUM 179
1 56730U 23068W   24006.49189184  .00001315  00000-0  16970-3 0  9992
2 56730  86.6776  44.5166 0002279  95.6134 264.5347 14.80217119 34313
