<?xml version="1.0" encoding="UTF-8"?>
<ndm xmlns:xsi="http://www.w3.org/2001/XMLSchema-instance" xsi:noNamespaceSchemaLocation="https://sanaregistry.org/r/ndmxml_unqualified/ndmxml-2.0.0-master-2.0.xsd">
<omm id="CCSDS_OMM_VERS" version="2.0">
<header><CREATION_DATE/><ORIGINATOR/></header><body><segment><metadata><OBJECT_NAME>IRIDIUM 171</OBJECT_NAME><OBJECT_ID>2019-002H</OBJECT_ID><CENTER_NAME>EARTH</CENTER_NAME><REF_FRAME>TEME</REF_FRAME><TIME_SYSTEM>UTC</TIME_SYSTEM><MEAN_ELEMENT_THEORY>SGP4</MEAN_ELEMENT_THEORY></metadata><data><meanElements><EPOCH>2024-01-06T11:21:19.374624</EPOCH><MEAN_MOTION>14.34218885</MEAN_MOTION><ECCENTRICITY>.0002078</ECCENTRICITY><INCLINATION>86.3979</INCLINATION><RA_OF_ASC_NODE>6.8642</RA_OF_ASC_NODE><ARG_OF_PERICENTER>89.7436</ARG_OF_PERICENTER><MEAN_ANOMALY>270.3998</MEAN_ANOMALY></meanElements><tleParameters><EPHEMERIS_TYPE>0</EPHEMERIS_TYPE><CLASSIFICATION_TYPE>U</CLASSIFICATION_TYPE><NORAD_CAT_ID>43929</NORAD_CAT_ID><ELEMENT_SET_NO>999</ELEMENT_SET_NO><REV_AT_EPOCH>26100</REV_AT_EPOCH><BSTAR>.11153E-3</BSTAR><MEAN_MOTION_DOT>.332E-5</MEAN_MOTION_DOT><MEAN_MOTION_DDOT>0</MEAN_MOTION_DDOT></tleParameters></data></segment></body></omm>
<omm id="CCSDS_OMM_VERS" version="2.0">
<header><CREATION_DATE/><ORIGINATOR/></header><body><segment><metadata><OBJECT_NAME>IRIDIUM 170</OBJECT_NAME><OBJECT_ID>2019-002J</OBJECT_ID><CENTER_NAME>EARTH</CENTER_NAME><REF_FRAME>TEME</REF_FRAME><TIME_SYSTEM>UTC</TIME_SYSTEM><MEAN_ELEMENT_THEORY>SGP4</MEAN_ELEMENT_THEORY></metadata><data><meanElements><EPOCH>2024-01-06T11:27:19.005120</EPOCH><MEAN_MOTION>14.72237725</MEAN_MOTION><ECCENTRICITY>.0002376</ECCENTRICITY><INCLINATION>86.6098</INCLINATION><RA_OF_ASC_NODE>6.7074</RA_OF_ASC_NODE><ARG_OF_PERICENTER>87.0864</ARG_OF_PERICENTER><MEAN_ANOMALY>273.0625</MEAN_ANOMALY></meanElements><tleParameters><EPHEMERIS_TYPE>0</EPHEMERIS_TYPE><CLASSIFICATION_TYPE>U</CLASSIFICATION_TYPE><NORAD_CAT_ID>43930</NORAD_CAT_ID><ELEMENT_SET_NO>999</ELEMENT_SET_NO><REV_AT_EPOCH>26791</REV_AT_EPOCH><BSTAR>.11747E-3</BSTAR><MEAN_MOTION_DOT>.765E-5</MEAN_MOTION_DOT><MEAN_MOTION_DDOT>0</MEAN_MOTION_DDOT></tleParameters></data></segment></body></omm>
<omm id="CCSDS_OMM_VERS" version="2.0">
<header><CREATION_DATE/><ORIGINATOR/></header><body><segment><metadata><OBJECT_NAME>IRIDIUM 167</OBJECT_NAME><OBJECT_ID>2019-002K</OBJECT_ID><CENTER_NAME>EARTH</CENTER_NAME><REF_FRAME>TEME</REF_FRAME><TIME_SYSTEM>UTC</TIME_SYSTEM><MEAN_ELEMENT_THEORY>SGP4</MEAN_ELEMENT_THEORY></metadata><data><meanElements><EPOCH>2024-01-06T11:12:11.996064</EPOCH><MEAN_MOTION>14.34217589</MEAN_MOTION><ECCENTRICITY>.0002065</ECCENTRICITY><INCLINATION>86.3970</INCLINATION><RA_OF_ASC_NODE>6.6741</RA_OF_ASC_NODE><ARG_OF_PERICENTER>90.3045</ARG_OF_PERICENTER><MEAN_ANOMALY>269.8387</MEAN_ANOMALY></meanElements><tleParameters><EPHEMERIS_TYPE>0</EPHEMERIS_TYPE><CLASSIFICATION_TYPE>U</CLASSIFICATION_TYPE><NORAD_CAT_ID>43931</NORAD_CAT_ID><ELEMENT_SET_NO>999</ELEMENT_SET_NO><REV_AT_EPOCH>26100</REV_AT_EPOCH><BSTAR>.11045E-3</BSTAR><MEAN_MOTION_DOT>.329E-5</MEAN_MOTION_DOT><MEAN_MOTION_DDOT>0</MEAN_MOTION_DDOT></tleParameters></data></segment></body></omm>
<omm id="CCSDS_OMM_VERS" version="2.0">
<header><CREATION_DATE/><ORIGINATOR/></header><body><segment><metadata><OBJECT_NAME>IRIDIUM 181</OBJECT_NAME><OBJECT_ID>2023-068S</OBJECT_ID><CENTER_NAME>EARTH</CENTER_NAME><REF_FRAME>TEME</REF_FRAME><TIME_SYSTEM>UTC</TIME_SYSTEM><MEAN_ELEMENT_THEORY>SGP4</MEAN_ELEMENT_THEORY></metadata><data><meanElements><EPOCH>2024-01-06T11:46:13.572768</EPOCH><MEAN_MOTION>14.43573375</MEAN_MOTION><ECCENTRICITY>.0001626</ECCENTRICITY><INCLINATION>86.8614</INCLINATION><RA_OF_ASC_NODE>52.4949</RA_OF_ASC_NODE><ARG_OF_PERICENTER>81.1044</ARG_OF_PERICENTER><MEAN_ANOMALY>279.0341</MEAN_ANOMALY></meanElements><tleParameters><EPHEMERIS_TYPE>0</EPHEMERIS_TYPE><CLASSIFICATION_TYPE>U</CLASSIFICATION_TYPE><NORAD_CAT_ID>56726</NORAD_CAT_ID><ELEMENT_SET_NO>999</ELEMENT_SET_NO><REV_AT_EPOCH>3366</REV_AT_EPOCH><BSTAR>.10302E-3</BSTAR><MEAN_MOTION_DOT>.368E-5</MEAN_MOTION_DOT><MEAN_MOTION_DDOT>0</MEAN_MOTION_DDOT></tleParameters></data></segment></body></omm>
<omm id="CCSDS_OMM_VERS" version="2.0">
<header><CREATION_DATE/><ORIGINATOR/></header><body><segment><metadata><OBJECT_NAME>IRIDIUM 177</OBJECT_NAME><OBJECT_ID>2023-068T</OBJECT_ID><CENTER_NAME>EARTH</CENTER_NAME><REF_FRAME>TEME</REF_FRAME><TIME_SYSTEM>UTC</TIME_SYSTEM><MEAN_ELEMENT_THEORY>SGP4</MEAN_ELEMENT_THEORY></metadata><data><meanElements><EPOCH>2024-01-06T12:11:42.690336</EPOCH><MEAN_MOTION>14.80213627</MEAN_MOTION><ECCENTRICITY>.0002254</ECCENTRICITY><INCLINATION>86.1965</INCLINATION><RA_OF_ASC_NODE>32.5829</RA_OF_ASC_NODE><ARG_OF_PERICENTER>95.6133</ARG_OF_PERICENTER><MEAN_ANOMALY>264.5345</MEAN_ANOMALY></meanElements><tleParameters><EPHEMERIS_TYPE>0</EPHEMERIS_TYPE><CLASSIFICATION_TYPE>U</CLASSIFICATION_TYPE><NORAD_CAT_ID>56727</NORAD_CAT_ID><ELEMENT_SET_NO>999</ELEMENT_SET_NO><REV_AT_EPOCH>3431</REV_AT_EPOCH><BSTAR>.18357E-3</BSTAR><MEAN_MOTION_DOT>.1421E-4</MEAN_MOTION_DOT><MEAN_MOTION_DDOT>0</MEAN_MOTION_DDOT></tleParameters></data></segment></body></omm>
<omm id="CCSDS_OMM_VERS" version="2.0">
<header><CREATION_DATE/><ORIGINATOR/></header><body><segment><metadata><OBJECT_NAME>IRIDIUM 174</OBJECT_NAME><OBJECT_ID>2023-068U</OBJECT_ID><CENTER_NAME>EARTH</CENTER_NAME><REF_FRAME>TEME</REF_FRAME><TIME_SYSTEM>UTC</TIME_SYSTEM><MEAN_ELEMENT_THEORY>SGP4</MEAN_ELEMENT_THEORY></metadata><data><meanElements><EPOCH>2024-01-06T12:03:52.109280</EPOCH><MEAN_MOTION>14.80220418</MEAN_MOTION><ECCENTRICITY>.0002458</ECCENTRICITY><INCLINATION>86.1971</INCLINATION><RA_OF_ASC_NODE>32.6760</RA_OF_ASC_NODE><ARG_OF_PERICENTER>96.7265</ARG_OF_PERICENTER><MEAN_ANOMALY>263.4236</MEAN_ANOMALY></meanElements><tleParameters><EPHEMERIS_TYPE>0</EPHEMERIS_TYPE><CLASSIFICATION_TYPE>U</CLASSIFICATION_TYPE><NORAD_CAT_ID>56728</NORAD_CAT_ID><ELEMENT_SET_NO>999</ELEMENT_SET_NO><REV_AT_EPOCH>3431</REV_AT_EPOCH><BSTAR>.18296E-3</BSTAR><MEAN_MOTION_DOT>.1416E-4</MEAN_MOTION_DOT><MEAN_MOTION_DDOT>0</MEAN_MOTION_DDOT></tleParameters></data></segment></body></omm>
<omm id="CCSDS_OMM_VERS" version="2.0">
<header><CREATION_DATE/><ORIGINATOR/></header><body><segment><metadata><OBJECT_NAME>IRIDIUM 178</OBJECT_NAME><OBJECT_ID>2023-068V</OBJECT_ID><CENTER_NAME>EARTH</CENTER_NAME><REF_FRAME>TEME</REF_FRAME><TIME_SYSTEM>UTC</TIME_SYSTEM><MEAN_ELEMENT_THEORY>SGP4</MEAN_ELEMENT_THEORY></metadata><data><meanElements><EPOCH>2024-01-06T11:56:05.381664</EPOCH><MEAN_MOTION>14.80216723</MEAN_MOTION><ECCENTRICITY>.0002217</ECCENTRICITY><INCLINATION>86.5767</INCLINATION><RA_OF_ASC_NODE>42.4295</RA_OF_ASC_NODE><ARG_OF_PERICENTER>94.1087</ARG_OF_PERICENTER><MEAN_ANOMALY>266.0388</MEAN_ANOMALY></meanElements><tleParameters><EPHEMERIS_TYPE>0</EPHEMERIS_TYPE><CLASSIFICATION_TYPE>U</CLASSIFICATION_TYPE><NORAD_CAT_ID>56729</NORAD_CAT_ID><ELEMENT_SET_NO>999</ELEMENT_SET_NO><REV_AT_EPOCH>3431</REV_AT_EPOCH><BSTAR>.17299E-3</BSTAR><MEAN_MOTION_DOT>.134E-4</MEAN_MOTION_DOT><MEAN_MOTION_DDOT>0</MEAN_MOTION_DDOT></tleParameters></data></segment></body></omm>
<omm id="CCSDS_OMM_VERS" version="2.0">
<header><CREATION_DATE/><ORIGINATOR/></header><body><segment><metadata><OBJECT_NAME>IRIDIUM 179</OBJECT_NAME><OBJECT_ID>2023-068W</OBJECT_ID><CENTER_NAME>EARTH</CENTER_NAME><REF_FRAME>TEME</REF_FRAME><TIME_SYSTEM>UTC</TIME_SYSTEM><MEAN_ELEMENT_THEORY>SGP4</MEAN_ELEMENT_THEORY></metadata><data><meanElements><EPOCH>2024-01-06T11:48:19.454976</EPOCH><MEAN_MOTION>14.80217119</MEAN_MOTION><ECCENTRICITY>.0002279</ECCENTRICITY><INCLINATION>86.6776</INCLINATION><RA_OF_ASC_NODE>44.5166</RA_OF_ASC_NODE><ARG_OF_PERICENTER>95.6134</ARG_OF_PERICENTER><MEAN_ANOMALY>264.5347</MEAN_ANOMALY></meanElements><tleParameters><EPHEMERIS_TYPE>0</EPHEMERIS_TYPE><CLASSIFICATION_TYPE>U</CLASSIFICATION_TYPE><NORAD_CAT_ID>56730</NORAD_CAT_ID><ELEMENT_SET_NO>999</ELEMENT_SET_NO><REV_AT_EPOCH>3431</REV_AT_EPOCH><BSTAR>.1697E-3</BSTAR><MEAN_MOTION_DOT>.1315E-4</MEAN_MOTION_DOT><MEAN_MOTION_DDOT>0</MEAN_MOTION_DDOT></tleParameters></data></segment></body></omm>
</ndm>
